ONEWEB-0597             
1 54663U 22166X   26161.62638150 -.00000012  00000+0 -59540-4 0  9999
2 54663  87.9255 245.2928 0002043  95.8335 264.3032 13.21826340170677
ONEWEB-0600             
1 54664U 22166Y   26161.60785540 -.00000059  00000+0 -17348-3 0  9994
2 54664  87.9253 245.2878 0001843  95.5311 264.6033 13.21824004170644
ONEWEB-0601             
1 54665U 22166Z   26161.59945666 -.00000040  00000+0 -12804-3 0  9992
2 54665  87.9253 245.3056 0002151  93.3093 266.8287 13.21825455170837
ONEWEB-0602             
1 54666U 22166AA  26161.48927961  .00000079  00000+0  16041-3 0  9996
2 54666  87.9254 245.3337 0001816  93.5712 266.5630 13.21826265170668
ONEWEB-0603             
1 54667U 22166AB  26161.49517707  .00000091  00000+0  18850-3 0  9995
2 54667  87.9263 245.2888 0002018  96.2554 263.8810 13.21826345170599
ONEWEB-0604             
1 54668U 22166AC  26161.63478594  .00000006  00000+0 -15986-4 0  9997
2 54668  87.9266 245.2765 0002000 101.6564 258.4795 13.21827202170573
ONEWEB-0605             
1 54669U 22166AD  26161.62806862 -.00000014  00000+0 -64629-4 0  9998
2 54669  87.9257 245.2918 0002614  93.6940 266.4493 13.21826343170640
ONEWEB-0606             
1 54670U 22166AE  26161.49853935  .00000054  00000+0  98102-4 0  9993
2 54670  87.9255 245.3302 0001970 104.2481 255.8872 13.21826836170685
ONEWEB-0607             
1 54671U 22166AF  26161.61626628  .00000050  00000+0  90107-4 0  9998
2 54671  87.9261 245.2772 0001978  94.5770 265.5590 13.21824845170675
ONEWEB-0608             
1 54672U 22166AG  26161.47161508  .00000070  00000+0  13799-3 0  9997
2 54672  87.9266 245.3024 0002390  89.3600 270.7808 13.21827858170661
ONEWEB-0610             
1 54673U 22166AH  26161.60280988 -.00000100  00000+0 -27322-3 0  9990
2 54673  87.9254 245.2913 0002211  83.0570 277.0815 13.21824002170581
ONEWEB-0611             
1 54674U 22166AJ  26161.59608252  .00000012  00000+0 -16712-5 0  9991
2 54674  87.9253 245.2886 0002006 102.8423 257.2936 13.21828055170574
ONEWEB-0612             
1 54675U 22166AK  26161.60955121 -.00000085  00000+0 -23686-3 0  9991
2 54675  87.9264 245.2807 0002100  95.3138 264.8235 13.21824883170564
ONEWEB-0615             
1 54676U 22166AL  26161.51367923  .00000001  00000+0 -27962-4 0  9998
2 54676  87.9259 245.3151 0001809 104.5924 255.5411 13.21826406170569
ONEWEB-0655             
1 54677U 22166AM  26161.49012862  .00000100  00000+0  21125-3 0  9998
2 54677  87.9256 245.3210 0001861  93.2466 266.8881 13.21826759170552
ONEWEB-0659             
1 54678U 22166AN  26161.50695085  .00000259  00000+0  59522-3 0  9992
2 54678  87.9254 245.3176 0002054 101.9128 258.2236 13.21826374170641
ONEWEB-0685             
1 54679U 22166AP  26161.50713941  .00000045  00000+0  78563-4 0  9995
2 54679  87.9253 245.3100 0002087  89.5501 270.5872 13.21847371170531
ONEWEB-0712             
1 54680U 22166AQ  26161.60027761  .00000009  00000+0 -10565-4 0  9995
2 54680  87.9103 230.0824 0001659  89.2864 270.8457 13.16593781171196
ONEWEB-0714             
1 54681U 22166AR  26161.58766745  .00000070  00000+0  13809-3 0  9995
2 54681  87.9254 245.2912 0001725  96.8121 263.3210 13.21824281170667
ONEWEB-0532             
1 55140U 23004A   26161.57876850  .00000067  00000+0  14067-3 0  9999
2 55140  87.9138   7.1796 0002197  89.9247 270.2137 13.17648579166715
ONEWEB-0533             
1 55141U 23004B   26161.51983266  .00000471  00000+0  12747-2 0  9995
2 55141  87.8945 351.9969 0001879  83.2208 276.9134 13.12442980167188
ONEWEB-0541             
1 55142U 23004C   26161.62077776  .00000026  00000+0  37744-4 0  9990
2 55142  87.8899  22.3646 0001831  90.1901 269.9436 13.11416111165083
ONEWEB-0543             
1 55143U 23004D   26161.56261179  .00000080  00000+0  17063-3 0  9997
2 55143  87.9157 336.7883 0001623  88.5641 271.5678 13.18685341168820
ONEWEB-0544             
1 55144U 23004E   26161.55587063  .00000076  00000+0  15943-3 0  9990
2 55144  87.9157 336.7894 0001664  95.8674 264.2647 13.18685717168827
ONEWEB-0560             
1 55145U 23004F   26161.54913000  .00000084  00000+0  18011-3 0  9992
2 55145  87.9158 336.7801 0001580  95.8357 264.2956 13.18686650168833
ONEWEB-0565             
1 55146U 23004G   26161.54238158  .00000025  00000+0  31152-4 0  9994
2 55146  87.9149 336.8101 0001911 104.1237 256.0108 13.18684928168820
ONEWEB-0567             
1 55147U 23004H   26161.53564205  .00000041  00000+0  71751-4 0  9996
2 55147  87.9158 336.7950 0001773 103.4406 256.6923 13.18685328168824
ONEWEB-0569             
1 55148U 23004J   26160.99978097 -.00000181  00000+0 -53089-3 0  9994
2 55148  87.8958 321.6504 0001276 123.2189 236.9063 13.13469073169230
ONEWEB-0570             
1 55149U 23004K   26161.52719799  .00000077  00000+0  16299-3 0  9991
2 55149  87.9156 336.7945 0002226  96.5064 263.6322 13.18684936168818
ONEWEB-0571             
1 55150U 23004L   26161.52047100  .00000895  00000+0  22361-2 0  9997
2 55150  87.9158 336.7951 0001953 130.9237 229.2064 13.18683785168823
