OBJECT_NAME,OBJECT_ID,EPOCH,MEAN_MOTION,ECCENTRICITY,INCLINATION,RA_OF_ASC_NODE,ARG_OF_PERICENTER,MEAN_ANOMALY,EPHEMERIS_TYPE,CLASSIFICATION_TYPE,NORAD_CAT_ID,ELEMENT_SET_NO,REV_AT_EPOCH,BSTAR,MEAN_MOTION_DOT,MEAN_MOTION_DDOT
ONEWEB-0597,2022-166X,2026-06-10T15:01:59.361600,13.21826340,.00020434,87.9255,245.2928,95.8335,264.3032,0,U,54663,999,17067,-.59539861E-4,-.12E-6,0
ONEWEB-0600,2022-166Y,2026-06-10T14:35:18.706560,13.21824004,.00018434,87.9253,245.2878,95.5311,264.6033,0,U,54664,999,17064,-.17347512E-3,-.59E-6,0
ONEWEB-0601,2022-166Z,2026-06-10T14:23:13.055424,13.21825455,.00021513,87.9253,245.3056,93.3093,266.8287,0,U,54665,999,17083,-.12804452E-3,-.4E-6,0
ONEWEB-0602,2022-166AA,2026-06-10T11:44:33.758304,13.21826265,.00018162,87.9254,245.3337,93.5712,266.5630,0,U,54666,999,17066,.1604118E-3,.79E-6,0
ONEWEB-0603,2022-166AB,2026-06-10T11:53:03.298848,13.21826345,.00020181,87.9263,245.2888,96.2554,263.8810,0,U,54667,999,17059,.18850466E-3,.91E-6,0
ONEWEB-0604,2022-166AC,2026-06-10T15:14:05.505216,13.21827202,.0002,87.9266,245.2765,101.6564,258.4795,0,U,54668,999,17057,-.15986089E-4,.6E-7,0
ONEWEB-0605,2022-166AD,2026-06-10T15:04:25.128768,13.21826343,.00026144,87.9257,245.2918,93.6940,266.4493,0,U,54669,999,17064,-.64628591E-4,-.14E-6,0
ONEWEB-0606,2022-166AE,2026-06-10T11:57:53.799840,13.21826836,.00019708,87.9255,245.3302,104.2481,255.8872,0,U,54670,999,17068,.98102446E-4,.54E-6,0
ONEWEB-0607,2022-166AF,2026-06-10T14:47:25.406592,13.21824845,.00019788,87.9261,245.2772,94.5770,265.5590,0,U,54671,999,17067,.90107086E-4,.5E-6,0
ONEWEB-0608,2022-166AG,2026-06-10T11:19:07.542912,13.21827858,.00023908,87.9266,245.3024,89.3600,270.7808,0,U,54672,999,17066,.13799357E-3,.7E-6,0
ONEWEB-0610,2022-166AH,2026-06-10T14:28:02.773632,13.21824002,.00022111,87.9254,245.2913,83.0570,277.0815,0,U,54673,999,17058,-.2732165E-3,-.1E-5,0
ONEWEB-0611,2022-166AJ,2026-06-10T14:18:21.529728,13.21828055,.00020069,87.9253,245.2886,102.8423,257.2936,0,U,54674,999,17057,-.1671172E-5,.12E-6,0
ONEWEB-0612,2022-166AK,2026-06-10T14:37:45.224544,13.21824883,.00021004,87.9264,245.2807,95.3138,264.8235,0,U,54675,999,17056,-.23685707E-3,-.85E-6,0
ONEWEB-0615,2022-166AL,2026-06-10T12:19:41.885472,13.21826406,.00018099,87.9259,245.3151,104.5924,255.5411,0,U,54676,999,17056,-.27961729E-4,.1E-7,0
ONEWEB-0655,2022-166AM,2026-06-10T11:45:47.112768,13.21826759,.00018617,87.9256,245.3210,93.2466,266.8881,0,U,54677,999,17055,.21125344E-3,.1E-5,0
ONEWEB-0659,2022-166AN,2026-06-10T12:10:00.553440,13.21826374,.00020549,87.9254,245.3176,101.9128,258.2236,0,U,54678,999,17064,.59521669E-3,.259E-5,0
ONEWEB-0685,2022-166AP,2026-06-10T12:10:16.845024,13.21847371,.00020873,87.9253,245.3100,89.5501,270.5872,0,U,54679,999,17053,.7856316E-4,.45E-6,0
ONEWEB-0712,2022-166AQ,2026-06-10T14:24:23.985504,13.16593781,.00016595,87.9103,230.0824,89.2864,270.8457,0,U,54680,999,17119,-.10565353E-4,.9E-7,0
ONEWEB-0714,2022-166AR,2026-06-10T14:06:14.467680,13.21824281,.00017253,87.9254,245.2912,96.8121,263.3210,0,U,54681,999,17066,.13808889E-3,.7E-6,0
ONEWEB-0532,2023-004A,2026-06-10T13:53:25.598400,13.17648579,.00021972,87.9138,7.1796,89.9247,270.2137,0,U,55140,999,16671,.14066889E-3,.67E-6,0
ONEWEB-0533,2023-004B,2026-06-10T12:28:33.541824,13.12442980,.00018796,87.8945,351.9969,83.2208,276.9134,0,U,55141,999,16718,.12747335E-2,.471E-5,0
ONEWEB-0541,2023-004C,2026-06-10T14:53:55.198464,13.11416111,.00018317,87.8899,22.3646,90.1901,269.9436,0,U,55142,999,16508,.37743652E-4,.26E-6,0
ONEWEB-0543,2023-004D,2026-06-10T13:30:09.658656,13.18685341,.00016237,87.9157,336.7883,88.5641,271.5678,0,U,55143,999,16882,.17062745E-3,.8E-6,0
ONEWEB-0544,2023-004E,2026-06-10T13:20:27.222432,13.18685717,.00016645,87.9157,336.7894,95.8674,264.2647,0,U,55144,999,16882,.15943466E-3,.76E-6,0
ONEWEB-0560,2023-004F,2026-06-10T13:10:44.832000,13.18686650,.00015802,87.9158,336.7801,95.8357,264.2956,0,U,55145,999,16883,.18010763E-3,.84E-6,0
ONEWEB-0565,2023-004G,2026-06-10T13:01:01.768512,13.18684928,.0001911,87.9149,336.8101,104.1237,256.0108,0,U,55146,999,16882,.31152442E-4,.25E-6,0
ONEWEB-0567,2023-004H,2026-06-10T12:51:19.473120,13.18685328,.00017739,87.9158,336.7950,103.4406,256.6923,0,U,55147,999,16882,.71751334E-4,.41E-6,0
ONEWEB-0569,2023-004J,2026-06-09T23:59:41.075808,13.13469073,.00012765,87.8958,321.6504,123.2189,236.9063,0,U,55148,999,16923,-.53088741E-3,-.181E-5,0
ONEWEB-0570,2023-004K,2026-06-10T12:39:09.906336,13.18684936,.00022265,87.9156,336.7945,96.5064,263.6322,0,U,55149,999,16881,.16298715E-3,.77E-6,0
ONEWEB-0571,2023-004L,2026-06-10T12:29:28.694400,13.18683785,.00019538,87.9158,336.7951,130.9237,229.2064,0,U,55150,999,16882,.22360554E-2,.895E-5,0
